CTC1_L_00581007-03
1 37112U 24089YP  26070.40840278  .00000000  00000+0  00000-0 0  9994
2 37112  65.0000 180.0000 0000000   0.0000 144.0000  7.15312845    12
CTC1_L_00581007-04
1 37113U 26349JZ  26070.40840278  .00000000  00000+0  00000-0 0  9996
2 37113  65.0000 180.0000 0000000   0.0000 180.0000  7.15312845    13
CTC1_L_00581007-05
1 37114U 26020HJ  26070.40840278  .00000000  00000+0  00000-0 0  9993
2 37114  65.0000 180.0000 0000000   0.0000 216.0000  7.15312845    14
CTC1_L_00581007-06
1 37115U 26384KS  26070.40840278  .00000000  00000+0  00000-0 0  9997
2 37115  65.0000 180.0000 0000000   0.0000 252.0000  7.15312845    15
CTC1_L_00581007-07
1 37116U 24558XQ  26070.40840278  .00000000  00000+0  00000-0 0  9999
2 37116  65.0000 180.0000 0000000   0.0000 288.0000  7.15312845    15
CTC1_L_00581007-08
1 37117U 22254HE  26070.40840278  .00000000  00000+0  00000-0 0  9991
2 37117  65.0000 180.0000 0000000   0.0000 324.0000  7.15312845    17
CTC1_L_00581007-09
1 37118U 26526CA  26070.40840278  .00000000  00000+0  00000-0 0  9998
2 37118  65.0000 180.0000 0000000   0.0000   0.0000  7.15312845    19
CTC1_L_00581007-10
1 37119U 22996SL  26070.40840278  .00000000  00000+0  00000-0 0  9996
2 37119  65.0000 180.0000 0000000   0.0000  36.0000  7.15312845    19
CTC1_L_00581008-01
1 37120U 25111RB  26070.40840278  .00000000  00000+0  00000-0 0  9990
2 37120  65.0000 210.0000 0000000   0.0000  84.0000  7.15312845    18
CTC1_L_00581008-02
1 37121U 26147ZO  26070.40840278  .00000000  00000+0  00000-0 0  9991
2 37121  65.0000 210.0000 0000000   0.0000 120.0000  7.15312845    10
CTC1_L_00581008-03
1 37122U 22665SB  26070.40840278  .00000000  00000+0  00000-0 0  9993
2 37122  65.0000 210.0000 0000000   0.0000 156.0000  7.15312845    10
CTC1_L_00581008-04
1 37123U 26290BO  26070.40840278  .00000000  00000+0  00000-0 0  9992
2 37123  65.0000 210.0000 0000000   0.0000 192.0000  7.15312845    11
CTC1_L_00581008-05
1 37124U 24766JL  26070.40840278  .00000000  00000+0  00000-0 0  9999
2 37124  65.0000 210.0000 0000000   0.0000 228.0000  7.15312845    12
CTC1_L_00581008-06
1 37125U 22182MQ  26070.40840278  .00000000  00000+0  00000-0 0  9990
2 37125  65.0000 210.0000 0000000   0.0000 264.0000  7.15312845    13
CTC1_L_00581008-07
1 37126U 23075LD  26070.40840278  .00000000  00000+0  00000-0 0  9993
2 37126  65.0000 210.0000 0000000   0.0000 300.0000  7.15312845    15
CTC1_L_00581008-08
1 37127U 26092NZ  26070.40840278  .00000000  00000+0  00000-0 0  9996
2 37127  65.0000 210.0000 0000000   0.0000 336.0000  7.15312845    15
CTC1_L_00581008-09
1 37128U 23410N   26070.40840278  .00000000  00000+0  00000-0 0  9998
2 37128  65.0000 210.0000 0000000   0.0000  12.0000  7.15312845    17
CTC1_L_00581008-10
1 37129U 24147WL  26070.40840278  .00000000  00000+0  00000-0 0  9997
2 37129  65.0000 210.0000 0000000   0.0000  48.0000  7.15312845    17
CTC1_L_00581009-01
1 37130U 24471WS  26070.40840278  .00000000  00000+0  00000-0 0  9999
2 37130  65.0000 240.0000 0000000   0.0000  96.0000  7.15312845    15
CTC1_L_00581009-02
1 37131U 22245RJ  26070.40840278  .00000000  00000+0  00000-0 0  9997
2 37131  65.0000 240.0000 0000000   0.0000 132.0000  7.15312845    17
CTC1_L_00581009-03
1 37132U 26036OD  26070.40840278  .00000000  00000+0  00000-0 0  9990
2 37132  65.0000 240.0000 0000000   0.0000 168.0000  7.15312845    17
CTC1_L_00581009-04
1 37133U 23704AN  26070.40840278  .00000000  00000+0  00000-0 0  9990
2 37133  65.0000 240.0000 0000000   0.0000 204.0000  7.15312845    19
CTC1_L_00581009-05
1 37134U 24392EP  26070.40840278  .00000000  00000+0  00000-0 0  9995
2 37134  65.0000 240.0000 0000000   0.0000 240.0000  7.15312845    10
CTC1_L_00581009-06
1 37135U 22682F   26070.40840278  .00000000  00000+0  00000-0 0  9996
2 37135  65.0000 240.0000 0000000   0.0000 276.0000  7.15312845    10
CTC1_L_00581009-07
1 37136U 24239SR  26070.40840278  .00000000  00000+0  00000-0 0  9997
2 37136  65.0000 240.0000 0000000   0.0000 312.0000  7.15312845    12
CTC1_L_00581009-08
1 37137U 25398RC  26070.40840278  .00000000  00000+0  00000-0 0  9995
2 37137  65.0000 240.0000 0000000   0.0000 348.0000  7.15312845    12
CTC1_L_00581009-09
1 37138U 25439PV  26070.40840278  .00000000  00000+0  00000-0 0  9992
2 37138  65.0000 240.0000 0000000   0.0000  24.0000  7.15312845    14
CTC1_L_00581009-10
1 37139U 22374LN  26070.40840278  .00000000  00000+0  00000-0 0  9998
2 37139  65.0000 240.0000 0000000   0.0000  60.0000  7.15312845    15
CTC1_L_00581010-01
1 37140U 23941NI  26070.40840278  .00000000  00000+0  00000-0 0  9991
2 37140  65.0000 270.0000 0000000   0.0000 108.0000  7.15312845    13
CTC1_L_00581010-02
1 37141U 26515UB  26070.40840278  .00000000  00000+0  00000-0 0  9992
2 37141  65.0000 270.0000 0000000   0.0000 144.0000  7.15312845    14
CTC1_L_00581010-03
1 37142U 24652DM  26070.40840278  .00000000  00000+0  00000-0 0  9993
2 37142  65.0000 270.0000 0000000   0.0000 180.0000  7.15312845    15
CTC1_L_00581010-04
1 37143U 22416WS  26070.40840278  .00000000  00000+0  00000-0 0  9990
2 37143  65.0000 270.0000 0000000   0.0000 216.0000  7.15312845    16
CTC1_L_00581010-05
1 37144U 26254YW  26070.40840278  .00000000  00000+0  00000-0 0  9995
2 37144  65.0000 270.0000 0000000   0.0000 252.0000  7.15312845    17
CTC1_L_00581010-06
1 37145U 23482IR  26070.40840278  .00000000  00000+0  00000-0 0  9996
2 37145  65.0000 270.0000 0000000   0.0000 288.0000  7.15312845    17
CTC1_L_00581010-07
1 37146U 24044LK  26070.40840278  .00000000  00000+0  00000-0 0  9992
2 37146  65.0000 270.0000 0000000   0.0000 324.0000  7.15312845    19
CTC1_L_00581010-08
1 37147U 22457LF  26070.40840278  .00000000  00000+0  00000-0 0  9999
2 37147  65.0000 270.0000 0000000   0.0000   0.0000  7.15312845    11
CTC1_L_00581010-09
1 37148U 23310MS  26070.40840278  .00000000  00000+0  00000-0 0  9999
2 37148  65.0000 270.0000 0000000   0.0000  36.0000  7.15312845    11
CTC1_L_00581010-10
1 37149U 22047HZ  26070.40840278  .00000000  00000+0  00000-0 0  9996
2 37149  65.0000 270.0000 0000000   0.0000  72.0000  7.15312845    12
CTC1_L_00581011-01
1 37150U 22634FA  26070.40840278  .00000000  00000+0  00000-0 0  9990
2 37150  65.0000 300.0000 0000000   0.0000 120.0000  7.15312845    12
CTC1_L_00581011-02
1 37151U 24108ZT  26070.40840278  .00000000  00000+0  00000-0 0  9999
2 37151  65.0000 300.0000 0000000   0.0000 156.0000  7.15312845    12
CTC1_L_00581011-03
1 37152U 26877AH  26070.40840278  .00000000  00000+0  00000-0 0  9995
2 37152  65.0000 300.0000 0000000   0.0000 192.0000  7.15312845    13
CTC1_L_00581011-04
1 37153U 26288ED  26070.40840278  .00000000  00000+0  00000-0 0  9992
2 37153  65.0000 300.0000 0000000   0.0000 228.0000  7.15312845    14
CTC1_L_00581011-05
1 37154U 24343O   26070.40840278  .00000000  00000+0  00000-0 0  9993
2 37154  65.0000 300.0000 0000000   0.0000 264.0000  7.15312845    15
CTC1_L_00581011-06
1 37155U 26962YV  26070.40840278  .00000000  00000+0  00000-0 0  9993
2 37155  65.0000 300.0000 0000000   0.0000 300.0000  7.15312845    17
CTC1_L_00581011-07
1 37156U 23368FI  26070.40840278  .00000000  00000+0  00000-0 0  9991
2 37156  65.0000 300.0000 0000000   0.0000 336.0000  7.15312845    17
CTC1_L_00581011-08
1 37157U 25779TX  26070.40840278  .00000000  00000+0  00000-0 0  9990
2 37157  65.0000 300.0000 0000000   0.0000  12.0000  7.15312845    19
CTC1_L_00581011-09
1 37158U 22367SF  26070.40840278  .00000000  00000+0  00000-0 0  9991
2 37158  65.0000 300.0000 0000000   0.0000  48.0000  7.15312845    19
CTC1_L_00581011-10
1 37159U 24561LI  26070.40840278  .00000000  00000+0  00000-0 0  9990
2 37159  65.0000 300.0000 0000000   0.0000  84.0000  7.15312845    10
CTC1_L_00581012-01
1 37160U 24820NE  26070.40840278  .00000000  00000+0  00000-0 0  9990
2 37160  65.0000 330.0000 0000000   0.0000 132.0000  7.15312845    19
CTC1_L_00581012-02
1 37161U 22566VX  26070.40840278  .00000000  00000+0  00000-0 0  9996
2 37161  65.0000 330.0000 0000000   0.0000 168.0000  7.15312845    19
CTC1_L_00581012-03
1 37162U 24335DN  26070.40840278  .00000000  00000+0  00000-0 0  9993
2 37162  65.0000 330.0000 0000000   0.0000 204.0000  7.15312845    11
CTC1_L_00581012-04
1 37163U 23594TR  26070.40840278  .00000000  00000+0  00000-0 0  9990
2 37163  65.0000 330.0000 0000000   0.0000 240.0000  7.15312845    12
CTC1_L_00581012-05
1 37164U 26944UR  26070.40840278  .00000000  00000+0  00000-0 0  9993
2 37164  65.0000 330.0000 0000000   0.0000 276.0000  7.15312845    12
CTC1_L_00581012-06
1 37165U 22347NO  26070.40840278  .00000000  00000+0  00000-0 0  9997
2 37165  65.0000 330.0000 0000000   0.0000 312.0000  7.15312845    14
CTC1_L_00581012-07
1 37166U 25989PO  26070.40840278  .00000000  00000+0  00000-0 0  9993
2 37166  65.0000 330.0000 0000000   0.0000 348.0000  7.15312845    14
CTC1_L_00581012-08
1 37167U 26870AZ  26070.40840278  .00000000  00000+0  00000-0 0  9994
2 37167  65.0000 330.0000 0000000   0.0000  24.0000  7.15312845    16
CTC1_L_00581012-09
1 37168U 24869QH  26070.40840278  .00000000  00000+0  00000-0 0  9991
2 37168  65.0000 330.0000 0000000   0.0000  60.0000  7.15312845    17
CTC1_L_00581012-10
1 37169U 26492HZ  26070.40840278  .00000000  00000+0  00000-0 0  9996
2 37169  65.0000 330.0000 0000000   0.0000  96.0000  7.15312845    17
